<?xml version="1.0" encoding="UTF-8"?>
<ndm xmlns:xsi="http://www.w3.org/2001/XMLSchema-instance" xsi:noNamespaceSchemaLocation="https://sanaregistry.org/r/ndmxml_unqualified/ndmxml-2.0.0-master-2.0.xsd">
<omm id="CCSDS_OMM_VERS" version="2.0">
<header><CREATION_DATE/><ORIGINATOR/></header><body><segment><metadata><OBJECT_NAME>KUIPER-00035</OBJECT_NAME><OBJECT_ID>2025-088AA</OBJECT_ID><CENTER_NAME>EARTH</CENTER_NAME><REF_FRAME>TEME</REF_FRAME><TIME_SYSTEM>UTC</TIME_SYSTEM><MEAN_ELEMENT_THEORY>SGP4</MEAN_ELEMENT_THEORY></metadata><data><meanElements><EPOCH>2025-09-12T20:00:31.397472</EPOCH><MEAN_MOTION>14.79881589</MEAN_MOTION><ECCENTRICITY>.00046503</ECCENTRICITY><INCLINATION>51.9014</INCLINATION><RA_OF_ASC_NODE>180.5769</RA_OF_ASC_NODE><ARG_OF_PERICENTER>197.8849</ARG_OF_PERICENTER><MEAN_ANOMALY>162.1950</MEAN_ANOMALY></meanElements><tleParameters><EPHEMERIS_TYPE>0</EPHEMERIS_TYPE><CLASSIFICATION_TYPE>U</CLASSIFICATION_TYPE><NORAD_CAT_ID>63748</NORAD_CAT_ID><ELEMENT_SET_NO>999</ELEMENT_SET_NO><REV_AT_EPOCH>2117</REV_AT_EPOCH><BSTAR>-.10700399E-2</BSTAR><MEAN_MOTION_DOT>-.8361E-4</MEAN_MOTION_DOT><MEAN_MOTION_DDOT>0</MEAN_MOTION_DDOT></tleParameters></data></segment></body></omm>
<omm id="CCSDS_OMM_VERS" version="2.0">
<header><CREATION_DATE/><ORIGINATOR/></header><body><segment><metadata><OBJECT_NAME>KUIPER-00037</OBJECT_NAME><OBJECT_ID>2025-088AB</OBJECT_ID><CENTER_NAME>EARTH</CENTER_NAME><REF_FRAME>TEME</REF_FRAME><TIME_SYSTEM>UTC</TIME_SYSTEM><MEAN_ELEMENT_THEORY>SGP4</MEAN_ELEMENT_THEORY></metadata><data><meanElements><EPOCH>2025-09-12T11:56:41.173728</EPOCH><MEAN_MOTION>14.79939500</MEAN_MOTION><ECCENTRICITY>.00070193</ECCENTRICITY><INCLINATION>51.8975</INCLINATION><RA_OF_ASC_NODE>181.0265</RA_OF_ASC_NODE><ARG_OF_PERICENTER>141.5388</ARG_OF_PERICENTER><MEAN_ANOMALY>218.6076</MEAN_ANOMALY></meanElements><tleParameters><EPHEMERIS_TYPE>0</EPHEMERIS_TYPE><CLASSIFICATION_TYPE>U</CLASSIFICATION_TYPE><NORAD_CAT_ID>63749</NORAD_CAT_ID><ELEMENT_SET_NO>999</ELEMENT_SET_NO><REV_AT_EPOCH>2192</REV_AT_EPOCH><BSTAR>-.16828164E-3</BSTAR><MEAN_MOTION_DOT>-.1506E-4</MEAN_MOTION_DOT><MEAN_MOTION_DDOT>0</MEAN_MOTION_DDOT></tleParameters></data></segment></body></omm>
<omm id="CCSDS_OMM_VERS" version="2.0">
<header><CREATION_DATE/><ORIGINATOR/></header><body><segment><metadata><OBJECT_NAME>KUIPER-00038</OBJECT_NAME><OBJECT_ID>2025-088AC</OBJECT_ID><CENTER_NAME>EARTH</CENTER_NAME><REF_FRAME>TEME</REF_FRAME><TIME_SYSTEM>UTC</TIME_SYSTEM><MEAN_ELEMENT_THEORY>SGP4</MEAN_ELEMENT_THEORY></metadata><data><meanElements><EPOCH>2025-09-12T18:00:58.179168</EPOCH><MEAN_MOTION>14.92015892</MEAN_MOTION><ECCENTRICITY>.00058178</ECCENTRICITY><INCLINATION>51.8949</INCLINATION><RA_OF_ASC_NODE>164.5826</RA_OF_ASC_NODE><ARG_OF_PERICENTER>191.1296</ARG_OF_PERICENTER><MEAN_ANOMALY>168.9544</MEAN_ANOMALY></meanElements><tleParameters><EPHEMERIS_TYPE>0</EPHEMERIS_TYPE><CLASSIFICATION_TYPE>U</CLASSIFICATION_TYPE><NORAD_CAT_ID>63750</NORAD_CAT_ID><ELEMENT_SET_NO>999</ELEMENT_SET_NO><REV_AT_EPOCH>2117</REV_AT_EPOCH><BSTAR>-.72476016E-4</BSTAR><MEAN_MOTION_DOT>-.991E-5</MEAN_MOTION_DOT><MEAN_MOTION_DDOT>0</MEAN_MOTION_DDOT></tleParameters></data></segment></body></omm>
<omm id="CCSDS_OMM_VERS" version="2.0">
<header><CREATION_DATE/><ORIGINATOR/></header><body><segment><metadata><OBJECT_NAME>KUIPER-00039</OBJECT_NAME><OBJECT_ID>2025-134A</OBJECT_ID><CENTER_NAME>EARTH</CENTER_NAME><REF_FRAME>TEME</REF_FRAME><TIME_SYSTEM>UTC</TIME_SYSTEM><MEAN_ELEMENT_THEORY>SGP4</MEAN_ELEMENT_THEORY></metadata><data><meanElements><EPOCH>2025-09-12T22:00:01.999584</EPOCH><MEAN_MOTION>15.11302463</MEAN_MOTION><ECCENTRICITY>.00128892</ECCENTRICITY><INCLINATION>51.8854</INCLINATION><RA_OF_ASC_NODE>300.7867</RA_OF_ASC_NODE><ARG_OF_PERICENTER>62.0642</ARG_OF_PERICENTER><MEAN_ANOMALY>328.9211</MEAN_ANOMALY></meanElements><tleParameters><EPHEMERIS_TYPE>0</EPHEMERIS_TYPE><CLASSIFICATION_TYPE>U</CLASSIFICATION_TYPE><NORAD_CAT_ID>64500</NORAD_CAT_ID><ELEMENT_SET_NO>999</ELEMENT_SET_NO><REV_AT_EPOCH>558</REV_AT_EPOCH><BSTAR>-.11568736E+0</BSTAR><MEAN_MOTION_DOT>-.1802023E-1</MEAN_MOTION_DOT><MEAN_MOTION_DDOT>0</MEAN_MOTION_DDOT></tleParameters></data></segment></body></omm>
<omm id="CCSDS_OMM_VERS" version="2.0">
<header><CREATION_DATE/><ORIGINATOR/></header><body><segment><metadata><OBJECT_NAME>KUIPER-00040</OBJECT_NAME><OBJECT_ID>2025-134B</OBJECT_ID><CENTER_NAME>EARTH</CENTER_NAME><REF_FRAME>TEME</REF_FRAME><TIME_SYSTEM>UTC</TIME_SYSTEM><MEAN_ELEMENT_THEORY>SGP4</MEAN_ELEMENT_THEORY></metadata><data><meanElements><EPOCH>2025-09-12T22:00:01.999584</EPOCH><MEAN_MOTION>14.79739685</MEAN_MOTION><ECCENTRICITY>.0018207</ECCENTRICITY><INCLINATION>51.8998</INCLINATION><RA_OF_ASC_NODE>310.3487</RA_OF_ASC_NODE><ARG_OF_PERICENTER>47.4092</ARG_OF_PERICENTER><MEAN_ANOMALY>155.6891</MEAN_ANOMALY></meanElements><tleParameters><EPHEMERIS_TYPE>0</EPHEMERIS_TYPE><CLASSIFICATION_TYPE>U</CLASSIFICATION_TYPE><NORAD_CAT_ID>64501</NORAD_CAT_ID><ELEMENT_SET_NO>999</ELEMENT_SET_NO><REV_AT_EPOCH>468</REV_AT_EPOCH><BSTAR>.9069366E-5</BSTAR><MEAN_MOTION_DOT>-.157E-5</MEAN_MOTION_DOT><MEAN_MOTION_DDOT>0</MEAN_MOTION_DDOT></tleParameters></data></segment></body></omm>
<omm id="CCSDS_OMM_VERS" version="2.0">
<header><CREATION_DATE/><ORIGINATOR/></header><body><segment><metadata><OBJECT_NAME>KUIPER-00041</OBJECT_NAME><OBJECT_ID>2025-134C</OBJECT_ID><CENTER_NAME>EARTH</CENTER_NAME><REF_FRAME>TEME</REF_FRAME><TIME_SYSTEM>UTC</TIME_SYSTEM><MEAN_ELEMENT_THEORY>SGP4</MEAN_ELEMENT_THEORY></metadata><data><meanElements><EPOCH>2025-09-12T21:04:10.007040</EPOCH><MEAN_MOTION>14.79903701</MEAN_MOTION><ECCENTRICITY>.00145647</ECCENTRICITY><INCLINATION>51.8983</INCLINATION><RA_OF_ASC_NODE>311.8858</RA_OF_ASC_NODE><ARG_OF_PERICENTER>41.1315</ARG_OF_PERICENTER><MEAN_ANOMALY>319.0742</MEAN_ANOMALY></meanElements><tleParameters><EPHEMERIS_TYPE>0</EPHEMERIS_TYPE><CLASSIFICATION_TYPE>U</CLASSIFICATION_TYPE><NORAD_CAT_ID>64502</NORAD_CAT_ID><ELEMENT_SET_NO>999</ELEMENT_SET_NO><REV_AT_EPOCH>1356</REV_AT_EPOCH><BSTAR>.31785873E-3</BSTAR><MEAN_MOTION_DOT>.2201E-4</MEAN_MOTION_DOT><MEAN_MOTION_DDOT>0</MEAN_MOTION_DDOT></tleParameters></data></segment></body></omm>
<omm id="CCSDS_OMM_VERS" version="2.0">
<header><CREATION_DATE/><ORIGINATOR/></header><body><segment><metadata><OBJECT_NAME>KUIPER-00042</OBJECT_NAME><OBJECT_ID>2025-134D</OBJECT_ID><CENTER_NAME>EARTH</CENTER_NAME><REF_FRAME>TEME</REF_FRAME><TIME_SYSTEM>UTC</TIME_SYSTEM><MEAN_ELEMENT_THEORY>SGP4</MEAN_ELEMENT_THEORY></metadata><data><meanElements><EPOCH>2025-09-12T22:00:01.999584</EPOCH><MEAN_MOTION>14.80533346</MEAN_MOTION><ECCENTRICITY>.00110984</ECCENTRICITY><INCLINATION>51.8993</INCLINATION><RA_OF_ASC_NODE>307.6725</RA_OF_ASC_NODE><ARG_OF_PERICENTER>53.9479</ARG_OF_PERICENTER><MEAN_ANOMALY>151.2804</MEAN_ANOMALY></meanElements><tleParameters><EPHEMERIS_TYPE>0</EPHEMERIS_TYPE><CLASSIFICATION_TYPE>U</CLASSIFICATION_TYPE><NORAD_CAT_ID>64503</NORAD_CAT_ID><ELEMENT_SET_NO>999</ELEMENT_SET_NO><REV_AT_EPOCH>472</REV_AT_EPOCH><BSTAR>-.42179094E-2</BSTAR><MEAN_MOTION_DOT>-.32722E-3</MEAN_MOTION_DOT><MEAN_MOTION_DDOT>0</MEAN_MOTION_DDOT></tleParameters></data></segment></body></omm>
<omm id="CCSDS_OMM_VERS" version="2.0">
<header><CREATION_DATE/><ORIGINATOR/></header><body><segment><metadata><OBJECT_NAME>KUIPER-00043</OBJECT_NAME><OBJECT_ID>2025-134E</OBJECT_ID><CENTER_NAME>EARTH</CENTER_NAME><REF_FRAME>TEME</REF_FRAME><TIME_SYSTEM>UTC</TIME_SYSTEM><MEAN_ELEMENT_THEORY>SGP4</MEAN_ELEMENT_THEORY></metadata><data><meanElements><EPOCH>2025-09-12T22:00:01.999584</EPOCH><MEAN_MOTION>15.06600684</MEAN_MOTION><ECCENTRICITY>.00083765</ECCENTRICITY><INCLINATION>51.8855</INCLINATION><RA_OF_ASC_NODE>301.7822</RA_OF_ASC_NODE><ARG_OF_PERICENTER>44.2822</ARG_OF_PERICENTER><MEAN_ANOMALY>274.8127</MEAN_ANOMALY></meanElements><tleParameters><EPHEMERIS_TYPE>0</EPHEMERIS_TYPE><CLASSIFICATION_TYPE>U</CLASSIFICATION_TYPE><NORAD_CAT_ID>64504</NORAD_CAT_ID><ELEMENT_SET_NO>999</ELEMENT_SET_NO><REV_AT_EPOCH>591</REV_AT_EPOCH><BSTAR>-.30036131E-2</BSTAR><MEAN_MOTION_DOT>-.45053E-3</MEAN_MOTION_DOT><MEAN_MOTION_DDOT>0</MEAN_MOTION_DDOT></tleParameters></data></segment></body></omm>

</ndm>
