KUIPER-00035            
1 63748U 25088AA  25255.83369673 -.00008361  00000+0 -10700-2 0  9994
2 63748  51.9014 180.5769 0004650 197.8849 162.1950 14.79881589 21172
KUIPER-00037            
1 63749U 25088AB  25255.49769877 -.00001506  00000+0 -16828-3 0  9999
2 63749  51.8975 181.0265 0007019 141.5388 218.6076 14.79939500 21927
KUIPER-00038            
1 63750U 25088AC  25255.75067337 -.00000991  00000+0 -72476-4 0  9991
2 63750  51.8949 164.5826 0005817 191.1296 168.9544 14.92015892 21170
KUIPER-00039            
1 64500U 25134A   25255.91668981 -.01802023  00000+0 -11569+0 0  9995
2 64500  51.8854 300.7867 0012889  62.0642 328.9211 15.11302463  5587
KUIPER-00040            
1 64501U 25134B   25255.91668981 -.00000157  00000+0  90694-5 0  9994
2 64501  51.8998 310.3487 0018207  47.4092 155.6891 14.79739685  4680
KUIPER-00041            
1 64502U 25134C   25255.87789360  .00002201  00000+0  31786-3 0  9991
2 64502  51.8983 311.8858 0014564  41.1315 319.0742 14.79903701 13564
KUIPER-00042            
1 64503U 25134D   25255.91668981 -.00032722  00000+0 -42179-2 0  9992
2 64503  51.8993 307.6725 0011098  53.9479 151.2804 14.80533346  4722
KUIPER-00043            
1 64504U 25134E   25255.91668981 -.00045053  00000+0 -30036-2 0  9993
2 64504  51.8855 301.7822 0008376  44.2822 274.8127 15.06600684  5914
